IRIDIUM 106             
1 41917U 17003A   24219.48034814  .00000184  00000+0  58612-4 0  9991
2 41917  86.3990  12.5601 0002110  82.1695 277.9740 14.34217983395789
IRIDIUM 103             
1 41918U 17003B   24219.46766451  .00000057  00000+0  13202-4 0  9994
2 41918  86.3990  12.4672 0002546  91.5961 268.5527 14.34218211395807
IRIDIUM 109             
1 41919U 17003C   24219.47400527  .00000457  00000+0  15628-3 0  9992
2 41919  86.3991  12.5127 0002331 101.2072 258.9386 14.34220856395779
IRIDIUM 102             
1 41920U 17003D   24219.51206059  .00001057  00000+0  37030-3 0  9991
2 41920  86.3990  12.4349 0002054  97.1749 262.9680 14.34220013395868
IRIDIUM 105             
1 41921U 17003E   24219.62233651  .00000634  00000+0  21921-3 0  9994
2 41921  86.4016 340.8391 0002359  91.9013 268.2453 14.34220914397733
IRIDIUM 104             
1 41922U 17003F   24219.52474818  .00000012  00000+0 -26203-5 0  9997
2 41922  86.3991  12.4616 0002421  99.2570 260.8899 14.34217607395854
IRIDIUM 114             
1 41923U 17003G   24219.53107962  .00000527  00000+0  18102-3 0  9999
2 41923  86.4007  12.4471 0002406  90.5887 269.5584 14.34211719395834
IRIDIUM 108             
1 41924U 17003H   24218.72214947  .00000032  00000+0  42238-5 0  9992
2 41924  86.4007 341.1364 0002059  91.3926 268.7506 14.34221810397576
